[{"OBJECT_NAME":"TIANPING 2A","OBJECT_ID":"2022-032A","EPOCH":"2026-03-09T22:58:37.953408","MEAN_MOTION":14.9690979,"ECCENTRICITY":0.00109299,"INCLINATION":97.5994,"RA_OF_ASC_NODE":109.5163,"ARG_OF_PERICENTER":146.1091,"MEAN_ANOMALY":214.0831,"EPHEMERIS_TYPE":0,"CLASSIFICATION_TYPE":"U","NORAD_CAT_ID":52153,"ELEMENT_SET_NO":999,"REV_AT_EPOCH":21499,"BSTAR":3.4221979e-5,"MEAN_MOTION_DOT":3.37e-6,"MEAN_MOTION_DDOT":0},{"OBJECT_NAME":"STARLINK-33897","OBJECT_ID":"2025-094B","EPOCH":"2026-03-09T21:31:28.309152","MEAN_MOTION":14.98333036,"ECCENTRICITY":0.00030947,"INCLINATION":70.0017,"RA_OF_ASC_NODE":233.9544,"ARG_OF_PERICENTER":270.6556,"MEAN_ANOMALY":89.4249,"EPHEMERIS_TYPE":0,"CLASSIFICATION_TYPE":"U","NORAD_CAT_ID":63865,"ELEMENT_SET_NO":999,"REV_AT_EPOCH":4745,"BSTAR":0.00019546056,"MEAN_MOTION_DOT":2.24e-5,"MEAN_MOTION_DDOT":0}]
